STARLINK-32655          
1 62202U 24229L   26068.00407619  .00024977  00000+0  91419-3 0  9995
2 62202  42.9989 274.8291 0001585 276.7643  83.3028 15.27575873 70452
2025-313BC              
1 67298U 25313BC  26068.18968176  .00075331  00000+0  26410-2 0  9997
2 67298  97.3985 144.8110 0008478 328.9209  31.1528 15.29126358  7890
